[{"OBJECT_NAME":"FENGYUN 1C DEB","OBJECT_ID":"1999-025BEQ","EPOCH":"2026-03-05T15:03:13.647456","MEAN_MOTION":14.68689337,"ECCENTRICITY":0.0047604,"INCLINATION":98.9652,"RA_OF_ASC_NODE":196.8794,"ARG_OF_PERICENTER":207.5693,"MEAN_ANOMALY":274.7424,"EPHEMERIS_TYPE":0,"CLASSIFICATION_TYPE":"U","NORAD_CAT_ID":31046,"ELEMENT_SET_NO":999,"REV_AT_EPOCH":97857,"BSTAR":0.0072977,"MEAN_MOTION_DOT":0.00043422,"MEAN_MOTION_DDOT":0},{"OBJECT_NAME":"FENGYUN 1C DEB","OBJECT_ID":"1999-025BER","EPOCH":"2026-03-04T11:28:56.830656","MEAN_MOTION":14.13999589,"ECCENTRICITY":0.0024779,"INCLINATION":98.7063,"RA_OF_ASC_NODE":63.7506,"ARG_OF_PERICENTER":308.9044,"MEAN_ANOMALY":203.3318,"EPHEMERIS_TYPE":0,"CLASSIFICATION_TYPE":"U","NORAD_CAT_ID":31047,"ELEMENT_SET_NO":999,"REV_AT_EPOCH":97514,"BSTAR":0.0005734364,"MEAN_MOTION_DOT":1.049e-5,"MEAN_MOTION_DDOT":0},{"OBJECT_NAME":"FENGYUN 1C DEB","OBJECT_ID":"1999-025BET","EPOCH":"2026-03-04T05:58:40.443744","MEAN_MOTION":14.04356979,"ECCENTRICITY":0.005025,"INCLINATION":98.803,"RA_OF_ASC_NODE":76.4495,"ARG_OF_PERICENTER":261.3752,"MEAN_ANOMALY":98.1721,"EPHEMERIS_TYPE":0,"CLASSIFICATION_TYPE":"U","NORAD_CAT_ID":31049,"ELEMENT_SET_NO":999,"REV_AT_EPOCH":62259,"BSTAR":0.00055432973,"MEAN_MOTION_DOT":8.49e-6,"MEAN_MOTION_DDOT":0},{"OBJECT_NAME":"FENGYUN 1C DEB","OBJECT_ID":"1999-025BEV","EPOCH":"2026-02-23T20:39:07.436736","MEAN_MOTION":14.03102683,"ECCENTRICITY":0.00514502,"INCLINATION":98.811,"RA_OF_ASC_NODE":88.1127,"ARG_OF_PERICENTER":292.3137,"MEAN_ANOMALY":67.258,"EPHEMERIS_TYPE":0,"CLASSIFICATION_TYPE":"U","NORAD_CAT_ID":31051,"ELEMENT_SET_NO":999,"REV_AT_EPOCH":64844,"BSTAR":0.00027904618,"MEAN_MOTION_DOT":3.96e-6,"MEAN_MOTION_DDOT":0},{"OBJECT_NAME":"FENGYUN 1C DEB","OBJECT_ID":"1999-025BEX","EPOCH":"2026-02-26T02:55:08.260032","MEAN_MOTION":13.76174111,"ECCENTRICITY":0.0306373,"INCLINATION":98.7952,"RA_OF_ASC_NODE":179.0033,"ARG_OF_PERICENTER":253.0332,"MEAN_ANOMALY":103.7034,"EPHEMERIS_TYPE":0,"CLASSIFICATION_TYPE":"U","NORAD_CAT_ID":31053,"ELEMENT_SET_NO":999,"REV_AT_EPOCH":94513,"BSTAR":0.001423377,"MEAN_MOTION_DOT":1.914e-5,"MEAN_MOTION_DDOT":0},{"OBJECT_NAME":"FENGYUN 1C DEB","OBJECT_ID":"1999-025BEY","EPOCH":"2026-03-05T13:08:29.292864","MEAN_MOTION":14.12228267,"ECCENTRICITY":0.0008779,"INCLINATION":98.6887,"RA_OF_ASC_NODE":80.0399,"ARG_OF_PERICENTER":244.4302,"MEAN_ANOMALY":271.0317,"EPHEMERIS_TYPE":0,"CLASSIFICATION_TYPE":"U","NORAD_CAT_ID":31054,"ELEMENT_SET_NO":999,"REV_AT_EPOCH":97932,"BSTAR":0.0001861,"MEAN_MOTION_DOT":2.99e-6,"MEAN_MOTION_DDOT":0},{"OBJECT_NAME":"FENGYUN 1C DEB","OBJECT_ID":"1999-025BEZ","EPOCH":"2026-03-05T13:19:59.894112","MEAN_MOTION":14.10488493,"ECCENTRICITY":0.0025258,"INCLINATION":98.7497,"RA_OF_ASC_NODE":98.5998,"ARG_OF_PERICENTER":40.565,"MEAN_ANOMALY":113.2332,"EPHEMERIS_TYPE":0,"CLASSIFICATION_TYPE":"U","NORAD_CAT_ID":31055,"ELEMENT_SET_NO":999,"REV_AT_EPOCH":97289,"BSTAR":0.00041866,"MEAN_MOTION_DOT":7.05e-6,"MEAN_MOTION_DDOT":0},{"OBJECT_NAME":"FENGYUN 1C DEB","OBJECT_ID":"1999-025BFA","EPOCH":"2026-03-04T09:54:46.223136","MEAN_MOTION":14.14437429,"ECCENTRICITY":0.00267794,"INCLINATION":98.6788,"RA_OF_ASC_NODE":48.5997,"ARG_OF_PERICENTER":106.0335,"MEAN_ANOMALY":49.0144,"EPHEMERIS_TYPE":0,"CLASSIFICATION_TYPE":"U","NORAD_CAT_ID":31056,"ELEMENT_SET_NO":999,"REV_AT_EPOCH":97972,"BSTAR":0.00046627349,"MEAN_MOTION_DOT":8.54e-6,"MEAN_MOTION_DDOT":0},{"OBJECT_NAME":"FENGYUN 1C DEB","OBJECT_ID":"1999-025BFB","EPOCH":"2026-02-28T09:01:46.932960","MEAN_MOTION":14.80758497,"ECCENTRICITY":0.01350922,"INCLINATION":99.2459,"RA_OF_ASC_NODE":115.5541,"ARG_OF_PERICENTER":10.1611,"MEAN_ANOMALY":350.2279,"EPHEMERIS_TYPE":0,"CLASSIFICATION_TYPE":"U","NORAD_CAT_ID":31057,"ELEMENT_SET_NO":999,"REV_AT_EPOCH":63101,"BSTAR":0.00078460999,"MEAN_MOTION_DOT":6.997e-5,"MEAN_MOTION_DDOT":0},{"OBJECT_NAME":"FENGYUN 1C DEB","OBJECT_ID":"1999-025BFC","EPOCH":"2026-03-04T03:22:29.060832","MEAN_MOTION":14.78422124,"ECCENTRICITY":0.00895674,"INCLINATION":99.5744,"RA_OF_ASC_NODE":32.5065,"ARG_OF_PERICENTER":215.442,"MEAN_ANOMALY":144.0814,"EPHEMERIS_TYPE":0,"CLASSIFICATION_TYPE":"U","NORAD_CAT_ID":31058,"ELEMENT_SET_NO":999,"REV_AT_EPOCH":695,"BSTAR":0.0014701595,"MEAN_MOTION_DOT":0.000114,"MEAN_MOTION_DDOT":0},{"OBJECT_NAME":"FENGYUN 1C DEB","OBJECT_ID":"1999-025BFG","EPOCH":"2026-03-05T11:19:28.934688","MEAN_MOTION":13.75741237,"ECCENTRICITY":0.0172436,"INCLINATION":99.003,"RA_OF_ASC_NODE":247.3209,"ARG_OF_PERICENTER":98.2306,"MEAN_ANOMALY":293.1582,"EPHEMERIS_TYPE":0,"CLASSIFICATION_TYPE":"U","NORAD_CAT_ID":31062,"ELEMENT_SET_NO":999,"REV_AT_EPOCH":95371,"BSTAR":0.00025033,"MEAN_MOTION_DOT":2.3e-6,"MEAN_MOTION_DDOT":0},{"OBJECT_NAME":"FENGYUN 1C DEB","OBJECT_ID":"1999-025BFJ","EPOCH":"2026-03-04T17:40:46.015680","MEAN_MOTION":14.22296806,"ECCENTRICITY":0.02417952,"INCLINATION":98.5848,"RA_OF_ASC_NODE":49.301,"ARG_OF_PERICENTER":122.9061,"MEAN_ANOMALY":51.919,"EPHEMERIS_TYPE":0,"CLASSIFICATION_TYPE":"U","NORAD_CAT_ID":31064,"ELEMENT_SET_NO":999,"REV_AT_EPOCH":98420,"BSTAR":0.00025053123,"MEAN_MOTION_DOT":7.05e-6,"MEAN_MOTION_DDOT":0},{"OBJECT_NAME":"FENGYUN 1C DEB","OBJECT_ID":"1999-025BFK","EPOCH":"2026-03-01T00:02:13.996032","MEAN_MOTION":14.28564642,"ECCENTRICITY":0.0035959,"INCLINATION":98.4614,"RA_OF_ASC_NODE":81.7444,"ARG_OF_PERICENTER":158.0525,"MEAN_ANOMALY":202.2206,"EPHEMERIS_TYPE":0,"CLASSIFICATION_TYPE":"U","NORAD_CAT_ID":31065,"ELEMENT_SET_NO":999,"REV_AT_EPOCH":65695,"BSTAR":0.00082602,"MEAN_MOTION_DOT":2.044e-5,"MEAN_MOTION_DDOT":0},{"OBJECT_NAME":"FENGYUN 1C DEB","OBJECT_ID":"1999-025BFN","EPOCH":"2026-02-24T17:31:53.078880","MEAN_MOTION":14.09280002,"ECCENTRICITY":0.01637124,"INCLINATION":98.6402,"RA_OF_ASC_NODE":39.8629,"ARG_OF_PERICENTER":268.4698,"MEAN_ANOMALY":89.7715,"EPHEMERIS_TYPE":0,"CLASSIFICATION_TYPE":"U","NORAD_CAT_ID":31068,"ELEMENT_SET_NO":999,"REV_AT_EPOCH":97397,"BSTAR":0.00025179459,"MEAN_MOTION_DOT":4.53e-6,"MEAN_MOTION_DDOT":0},{"OBJECT_NAME":"FENGYUN 1C DEB","OBJECT_ID":"1999-025BFP","EPOCH":"2026-03-03T16:36:30.506400","MEAN_MOTION":14.57818689,"ECCENTRICITY":0.01030673,"INCLINATION":99.1064,"RA_OF_ASC_NODE":235.5112,"ARG_OF_PERICENTER":192.0771,"MEAN_ANOMALY":167.7953,"EPHEMERIS_TYPE":0,"CLASSIFICATION_TYPE":"U","NORAD_CAT_ID":31069,"ELEMENT_SET_NO":999,"REV_AT_EPOCH":99865,"BSTAR":0.0013815638,"MEAN_MOTION_DOT":6.747e-5,"MEAN_MOTION_DDOT":0},{"OBJECT_NAME":"FENGYUN 1C DEB","OBJECT_ID":"1999-025BFR","EPOCH":"2026-03-04T11:11:18.097152","MEAN_MOTION":14.5351841,"ECCENTRICITY":0.00553718,"INCLINATION":99.0323,"RA_OF_ASC_NODE":152.5286,"ARG_OF_PERICENTER":37.3095,"MEAN_ANOMALY":323.1924,"EPHEMERIS_TYPE":0,"CLASSIFICATION_TYPE":"U","NORAD_CAT_ID":31071,"ELEMENT_SET_NO":999,"REV_AT_EPOCH":66681,"BSTAR":0.0013777163,"MEAN_MOTION_DOT":5.816e-5,"MEAN_MOTION_DDOT":0},{"OBJECT_NAME":"FENGYUN 1C DEB","OBJECT_ID":"1999-025BFS","EPOCH":"2026-03-05T11:59:04.775712","MEAN_MOTION":14.25915736,"ECCENTRICITY":0.0208187,"INCLINATION":99.332,"RA_OF_ASC_NODE":80.2461,"ARG_OF_PERICENTER":221.208,"MEAN_ANOMALY":137.3221,"EPHEMERIS_TYPE":0,"CLASSIFICATION_TYPE":"U","NORAD_CAT_ID":31072,"ELEMENT_SET_NO":999,"REV_AT_EPOCH":97822,"BSTAR":0.00062946,"MEAN_MOTION_DOT":1.828e-5,"MEAN_MOTION_DDOT":0},{"OBJECT_NAME":"FENGYUN 1C DEB","OBJECT_ID":"1999-025BFT","EPOCH":"2026-03-05T12:55:13.891008","MEAN_MOTION":14.25314283,"ECCENTRICITY":0.0044568,"INCLINATION":99.2181,"RA_OF_ASC_NODE":283.3983,"ARG_OF_PERICENTER":48.1875,"MEAN_ANOMALY":312.3096,"EPHEMERIS_TYPE":0,"CLASSIFICATION_TYPE":"U","NORAD_CAT_ID":31073,"ELEMENT_SET_NO":999,"REV_AT_EPOCH":98262,"BSTAR":0.0014297,"MEAN_MOTION_DOT":3.355e-5,"MEAN_MOTION_DDOT":0},{"OBJECT_NAME":"FENGYUN 1C DEB","OBJECT_ID":"1999-025BFU","EPOCH":"2026-03-05T17:44:58.768512","MEAN_MOTION":14.14970901,"ECCENTRICITY":0.0088753,"INCLINATION":98.9597,"RA_OF_ASC_NODE":345.0251,"ARG_OF_PERICENTER":28.0686,"MEAN_ANOMALY":332.5231,"EPHEMERIS_TYPE":0,"CLASSIFICATION_TYPE":"U","NORAD_CAT_ID":31074,"ELEMENT_SET_NO":999,"REV_AT_EPOCH":96753,"BSTAR":0.0027028,"MEAN_MOTION_DOT":5.389e-5,"MEAN_MOTION_DDOT":0},{"OBJECT_NAME":"FENGYUN 1C DEB","OBJECT_ID":"1999-025BFY","EPOCH":"2026-03-02T10:21:23.257152","MEAN_MOTION":14.22281517,"ECCENTRICITY":0.01149921,"INCLINATION":98.8539,"RA_OF_ASC_NODE":127.2794,"ARG_OF_PERICENTER":279.511,"MEAN_ANOMALY":144.9752,"EPHEMERIS_TYPE":0,"CLASSIFICATION_TYPE":"U","NORAD_CAT_ID":31078,"ELEMENT_SET_NO":999,"REV_AT_EPOCH":98025,"BSTAR":0.00052325887,"MEAN_MOTION_DOT":1.197e-5,"MEAN_MOTION_DDOT":0},{"OBJECT_NAME":"FENGYUN 1C DEB","OBJECT_ID":"1999-025BGB","EPOCH":"2026-03-05T00:07:17.438016","MEAN_MOTION":14.06316188,"ECCENTRICITY":0.00481636,"INCLINATION":98.7668,"RA_OF_ASC_NODE":82.8643,"ARG_OF_PERICENTER":1.7883,"MEAN_ANOMALY":30.2192,"EPHEMERIS_TYPE":0,"CLASSIFICATION_TYPE":"U","NORAD_CAT_ID":31081,"ELEMENT_SET_NO":999,"REV_AT_EPOCH":97617,"BSTAR":1.5640909e-5,"MEAN_MOTION_DOT":-1.7e-7,"MEAN_MOTION_DDOT":0},{"OBJECT_NAME":"FENGYUN 1C DEB","OBJECT_ID":"1999-025BGD","EPOCH":"2026-03-05T15:12:03.269952","MEAN_MOTION":14.64836363,"ECCENTRICITY":0.0029291,"INCLINATION":98.6461,"RA_OF_ASC_NODE":191.0823,"ARG_OF_PERICENTER":54.4277,"MEAN_ANOMALY":72.845,"EPHEMERIS_TYPE":0,"CLASSIFICATION_TYPE":"U","NORAD_CAT_ID":31083,"ELEMENT_SET_NO":999,"REV_AT_EPOCH":98922,"BSTAR":0.0031973,"MEAN_MOTION_DOT":0.00017163,"MEAN_MOTION_DDOT":0},{"OBJECT_NAME":"FENGYUN 1C DEB","OBJECT_ID":"1999-025BGF","EPOCH":"2026-03-05T13:08:54.984768","MEAN_MOTION":14.30372423,"ECCENTRICITY":0.008752,"INCLINATION":98.9824,"RA_OF_ASC_NODE":273.0342,"ARG_OF_PERICENTER":136.3686,"MEAN_ANOMALY":252.7636,"EPHEMERIS_TYPE":0,"CLASSIFICATION_TYPE":"U","NORAD_CAT_ID":31085,"ELEMENT_SET_NO":999,"REV_AT_EPOCH":98900,"BSTAR":0.0001432,"MEAN_MOTION_DOT":3.42e-6,"MEAN_MOTION_DDOT":0}]
